[{"OBJECT_NAME":"GOES 1 (SMS-C)","OBJECT_ID":"1975-100A","EPOCH":"2026-03-03T15:12:54.228672","MEAN_MOTION":1.00237278,"ECCENTRICITY":0.00054236,"INCLINATION":4.8766,"RA_OF_ASC_NODE":278.7592,"ARG_OF_PERICENTER":359.7442,"MEAN_ANOMALY":350.5619,"EPHEMERIS_TYPE":0,"CLASSIFICATION_TYPE":"U","NORAD_CAT_ID":8366,"ELEMENT_SET_NO":999,"REV_AT_EPOCH":18400,"BSTAR":0,"MEAN_MOTION_DOT":-5.0e-8,"MEAN_MOTION_DDOT":0},{"OBJECT_NAME":"GOES 2","OBJECT_ID":"1977-048A","EPOCH":"2026-03-03T23:11:21.694848","MEAN_MOTION":0.99397546,"ECCENTRICITY":0.001389,"INCLINATION":6.6702,"RA_OF_ASC_NODE":294.2228,"ARG_OF_PERICENTER":47.6111,"MEAN_ANOMALY":284.74,"EPHEMERIS_TYPE":0,"CLASSIFICATION_TYPE":"U","NORAD_CAT_ID":10061,"ELEMENT_SET_NO":999,"REV_AT_EPOCH":4522,"BSTAR":0,"MEAN_MOTION_DOT":-2.74e-6,"MEAN_MOTION_DDOT":0},{"OBJECT_NAME":"GOES 3","OBJECT_ID":"1978-062A","EPOCH":"2026-03-03T21:41:00.356640","MEAN_MOTION":0.99365964,"ECCENTRICITY":0.00028259,"INCLINATION":7.1399,"RA_OF_ASC_NODE":300.0516,"ARG_OF_PERICENTER":355.1799,"MEAN_ANOMALY":351.7656,"EPHEMERIS_TYPE":0,"CLASSIFICATION_TYPE":"U","NORAD_CAT_ID":10953,"ELEMENT_SET_NO":999,"REV_AT_EPOCH":12748,"BSTAR":0,"MEAN_MOTION_DOT":-2.74e-6,"MEAN_MOTION_DDOT":0},{"OBJECT_NAME":"GOES 4","OBJECT_ID":"1980-074A","EPOCH":"2026-03-03T08:53:40.092288","MEAN_MOTION":0.99231464,"ECCENTRICITY":0.00320891,"INCLINATION":8.2145,"RA_OF_ASC_NODE":303.7385,"ARG_OF_PERICENTER":103.015,"MEAN_ANOMALY":199.2874,"EPHEMERIS_TYPE":0,"CLASSIFICATION_TYPE":"U","NORAD_CAT_ID":11964,"ELEMENT_SET_NO":999,"REV_AT_EPOCH":12638,"BSTAR":0,"MEAN_MOTION_DOT":-2.54e-6,"MEAN_MOTION_DDOT":0},{"OBJECT_NAME":"GOES 5","OBJECT_ID":"1981-049A","EPOCH":"2026-03-03T03:23:13.936128","MEAN_MOTION":1.00211746,"ECCENTRICITY":0.00046693,"INCLINATION":9.5481,"RA_OF_ASC_NODE":316.3502,"ARG_OF_PERICENTER":336.7595,"MEAN_ANOMALY":190.2431,"EPHEMERIS_TYPE":0,"CLASSIFICATION_TYPE":"U","NORAD_CAT_ID":12472,"ELEMENT_SET_NO":999,"REV_AT_EPOCH":12178,"BSTAR":0,"MEAN_MOTION_DOT":-2.07e-6,"MEAN_MOTION_DDOT":0},{"OBJECT_NAME":"GOES 6","OBJECT_ID":"1983-041A","EPOCH":"2026-03-03T07:54:34.576704","MEAN_MOTION":1.00217666,"ECCENTRICITY":0.00023608,"INCLINATION":10.3592,"RA_OF_ASC_NODE":321.907,"ARG_OF_PERICENTER":306.4375,"MEAN_ANOMALY":262.1209,"EPHEMERIS_TYPE":0,"CLASSIFICATION_TYPE":"U","NORAD_CAT_ID":14050,"ELEMENT_SET_NO":999,"REV_AT_EPOCH":21495,"BSTAR":0,"MEAN_MOTION_DOT":-8.2e-7,"MEAN_MOTION_DDOT":0},{"OBJECT_NAME":"GOES 7","OBJECT_ID":"1987-022A","EPOCH":"2026-03-03T09:44:14.504352","MEAN_MOTION":0.99894387,"ECCENTRICITY":0.00039437,"INCLINATION":13.0217,"RA_OF_ASC_NODE":338.3812,"ARG_OF_PERICENTER":14.6167,"MEAN_ANOMALY":182.393,"EPHEMERIS_TYPE":0,"CLASSIFICATION_TYPE":"U","NORAD_CAT_ID":17561,"ELEMENT_SET_NO":999,"REV_AT_EPOCH":12590,"BSTAR":0,"MEAN_MOTION_DOT":6.8e-7,"MEAN_MOTION_DDOT":0},{"OBJECT_NAME":"GOES 8","OBJECT_ID":"1994-022A","EPOCH":"2026-03-03T14:53:33.582048","MEAN_MOTION":0.98908132,"ECCENTRICITY":0.00049833,"INCLINATION":14.3398,"RA_OF_ASC_NODE":14.4761,"ARG_OF_PERICENTER":14.0671,"MEAN_ANOMALY":168.0688,"EPHEMERIS_TYPE":0,"CLASSIFICATION_TYPE":"U","NORAD_CAT_ID":23051,"ELEMENT_SET_NO":999,"REV_AT_EPOCH":12308,"BSTAR":0,"MEAN_MOTION_DOT":-2.37e-6,"MEAN_MOTION_DDOT":0},{"OBJECT_NAME":"GOES 9","OBJECT_ID":"1995-025A","EPOCH":"2026-03-03T18:50:48.346656","MEAN_MOTION":0.98798832,"ECCENTRICITY":0.00036482,"INCLINATION":13.8692,"RA_OF_ASC_NODE":15.3176,"ARG_OF_PERICENTER":210.9063,"MEAN_ANOMALY":141.1665,"EPHEMERIS_TYPE":0,"CLASSIFICATION_TYPE":"U","NORAD_CAT_ID":23581,"ELEMENT_SET_NO":999,"REV_AT_EPOCH":11171,"BSTAR":0,"MEAN_MOTION_DOT":-9.9e-7,"MEAN_MOTION_DDOT":0},{"OBJECT_NAME":"GOES 10","OBJECT_ID":"1997-019A","EPOCH":"2026-03-03T19:40:43.561632","MEAN_MOTION":0.99122327,"ECCENTRICITY":0.0031183,"INCLINATION":13.0034,"RA_OF_ASC_NODE":21.8516,"ARG_OF_PERICENTER":239.2095,"MEAN_ANOMALY":294.1816,"EPHEMERIS_TYPE":0,"CLASSIFICATION_TYPE":"U","NORAD_CAT_ID":24786,"ELEMENT_SET_NO":999,"REV_AT_EPOCH":10502,"BSTAR":0,"MEAN_MOTION_DOT":-1.05e-6,"MEAN_MOTION_DDOT":0},{"OBJECT_NAME":"GOES 11","OBJECT_ID":"2000-022A","EPOCH":"2026-03-03T22:16:49.422720","MEAN_MOTION":0.99041062,"ECCENTRICITY":0.00059452,"INCLINATION":11.5793,"RA_OF_ASC_NODE":47.4483,"ARG_OF_PERICENTER":254.4886,"MEAN_ANOMALY":120.1146,"EPHEMERIS_TYPE":0,"CLASSIFICATION_TYPE":"U","NORAD_CAT_ID":26352,"ELEMENT_SET_NO":999,"REV_AT_EPOCH":5143,"BSTAR":0,"MEAN_MOTION_DOT":-1.24e-6,"MEAN_MOTION_DDOT":0},{"OBJECT_NAME":"GOES 12","OBJECT_ID":"2001-031A","EPOCH":"2026-03-03T20:38:50.778816","MEAN_MOTION":0.99137434,"ECCENTRICITY":0.00087596,"INCLINATION":11.9937,"RA_OF_ASC_NODE":38.1473,"ARG_OF_PERICENTER":295.8491,"MEAN_ANOMALY":79.8206,"EPHEMERIS_TYPE":0,"CLASSIFICATION_TYPE":"U","NORAD_CAT_ID":26871,"ELEMENT_SET_NO":999,"REV_AT_EPOCH":8972,"BSTAR":0,"MEAN_MOTION_DOT":-2.11e-6,"MEAN_MOTION_DDOT":0},{"OBJECT_NAME":"EWS-G1 (GOES 13)","OBJECT_ID":"2006-018A","EPOCH":"2026-03-03T15:16:31.382112","MEAN_MOTION":0.98784788,"ECCENTRICITY":0.00620021,"INCLINATION":4.259,"RA_OF_ASC_NODE":77.7119,"ARG_OF_PERICENTER":272.9811,"MEAN_ANOMALY":292.7975,"EPHEMERIS_TYPE":0,"CLASSIFICATION_TYPE":"U","NORAD_CAT_ID":29155,"ELEMENT_SET_NO":999,"REV_AT_EPOCH":4220,"BSTAR":0,"MEAN_MOTION_DOT":2.6e-7,"MEAN_MOTION_DDOT":0},{"OBJECT_NAME":"GOES 14","OBJECT_ID":"2009-033A","EPOCH":"2026-03-03T19:47:38.927040","MEAN_MOTION":1.0012403,"ECCENTRICITY":0.00022135,"INCLINATION":1.4174,"RA_OF_ASC_NODE":84.43,"ARG_OF_PERICENTER":297.3554,"MEAN_ANOMALY":278.8486,"EPHEMERIS_TYPE":0,"CLASSIFICATION_TYPE":"U","NORAD_CAT_ID":35491,"ELEMENT_SET_NO":999,"REV_AT_EPOCH":553,"BSTAR":0,"MEAN_MOTION_DOT":1.16e-6,"MEAN_MOTION_DDOT":0},{"OBJECT_NAME":"EWS-G2 (GOES 15)","OBJECT_ID":"2010-008A","EPOCH":"2026-03-03T22:56:08.153952","MEAN_MOTION":1.00269324,"ECCENTRICITY":0.00018056,"INCLINATION":1.008,"RA_OF_ASC_NODE":85.1578,"ARG_OF_PERICENTER":21.3342,"MEAN_ANOMALY":102.7379,"EPHEMERIS_TYPE":0,"CLASSIFICATION_TYPE":"U","NORAD_CAT_ID":36411,"ELEMENT_SET_NO":999,"REV_AT_EPOCH":5858,"BSTAR":0,"MEAN_MOTION_DOT":8.0e-8,"MEAN_MOTION_DDOT":0},{"OBJECT_NAME":"GOES 16","OBJECT_ID":"2016-071A","EPOCH":"2026-03-03T22:08:05.260704","MEAN_MOTION":1.00271688,"ECCENTRICITY":0.00025471,"INCLINATION":0.1461,"RA_OF_ASC_NODE":90.1616,"ARG_OF_PERICENTER":217.4792,"MEAN_ANOMALY":81.3532,"EPHEMERIS_TYPE":0,"CLASSIFICATION_TYPE":"U","NORAD_CAT_ID":41866,"ELEMENT_SET_NO":999,"REV_AT_EPOCH":3404,"BSTAR":0,"MEAN_MOTION_DOT":-1.04e-6,"MEAN_MOTION_DDOT":0},{"OBJECT_NAME":"GOES 17","OBJECT_ID":"2018-022A","EPOCH":"2026-03-03T22:12:27.342144","MEAN_MOTION":1.00270388,"ECCENTRICITY":0.00022748,"INCLINATION":0.6669,"RA_OF_ASC_NODE":87.5647,"ARG_OF_PERICENTER":220.8746,"MEAN_ANOMALY":96.8465,"EPHEMERIS_TYPE":0,"CLASSIFICATION_TYPE":"U","NORAD_CAT_ID":43226,"ELEMENT_SET_NO":999,"REV_AT_EPOCH":2936,"BSTAR":0,"MEAN_MOTION_DOT":-1.95e-6,"MEAN_MOTION_DDOT":0}]
